{
  "norad_id": 48274,
  "name": "TIANHE (CSS)",
  "line1": "1 48274U 21035A   24001.50000000  .00020000  00000-0  14000-3 0  9993",
  "line2": "2 48274  41.4700 180.0000 0003000  40.0000 320.0000 15.60000000150000",
  "epoch": "24001.50000000"
}
